[{"OBJECT_NAME":"LUMELITE-4","OBJECT_ID":"2023-057B","EPOCH":"2026-03-09T12:04:50.773152","MEAN_MOTION":15.19877406,"ECCENTRICITY":0.00040087,"INCLINATION":9.9925,"RA_OF_ASC_NODE":94.5306,"ARG_OF_PERICENTER":70.4016,"MEAN_ANOMALY":289.6633,"EPHEMERIS_TYPE":0,"CLASSIFICATION_TYPE":"U","NORAD_CAT_ID":56309,"ELEMENT_SET_NO":999,"REV_AT_EPOCH":15885,"BSTAR":0.00062211184,"MEAN_MOTION_DOT":0.00014689,"MEAN_MOTION_DDOT":0},{"OBJECT_NAME":"ION SCV-020","OBJECT_ID":"2025-135T","EPOCH":"2026-03-09T21:47:53.616480","MEAN_MOTION":15.20454047,"ECCENTRICITY":0.00028998,"INCLINATION":97.458,"RA_OF_ASC_NODE":184.8922,"ARG_OF_PERICENTER":140.0276,"MEAN_ANOMALY":220.1173,"EPHEMERIS_TYPE":0,"CLASSIFICATION_TYPE":"U","NORAD_CAT_ID":64545,"ELEMENT_SET_NO":999,"REV_AT_EPOCH":3976,"BSTAR":0.00023326396,"MEAN_MOTION_DOT":5.022e-5,"MEAN_MOTION_DDOT":0}]
